0 FENGYUN 1C DEB
1 31226U 99025BLG 21093.87019670  .00000140  00000-0  73374-4 0  9995
2 31226  98.4892 146.8352 0131043 176.2548 183.9644 14.23293094376536
0 FENGYUN 1C DEB
1 31185U 99025BJP 21093.34820031  .00000269  00000-0  20318-3 0  9993
2 31185  98.8817 120.4313 0041766 204.2689 155.6511 14.01945384383085
0 FENGYUN 1C DEB
1 31058U 99025BFC 21094.78230742  .00000389  00000-0  98138-4 0  9994
2 31058  99.6029 118.0728 0138469 195.7329 163.9539 14.52673259745497
0 FENGYUN 1C DEB
1 31023U 99025BDR 21093.29052799 -.00000111  00000-0 -40589-4 0  9997
2 31023  98.7668 112.1993 0083718   0.3578 359.7636 14.05447883454119
0 FENGYUN 1C DEB
1 31022U 99025BDQ 21093.70857957  .00000069  00000-0  92322-4 0  9993
2 31022  99.6285 263.8984 0111617   6.2842 353.9685 13.88480251711826
0 FENGYUN 1C DEB
1 30975U 99025BBR 21093.11379198  .00001138  00000-0  43304-3 0  9993
2 30975  99.0296 231.4416 0218124 203.8085 155.2882 14.20769816725993
0 FENGYUN 1C DEB
1 30964U 99025BBE 21093.08694634  .00000574  00000-0  44138-3 0  9991
2 30964  98.6664 149.2801 0154697 304.2320  84.0008 13.91441724714978
0 FENGYUN 1C DEB
1 30960U 99025BBA 21094.14342756  .00000418  00000-0  92533-4 0  9990
2 30960  99.0393  57.4016 0259833 275.3940  81.7660 14.44892433738341
0 FENGYUN 1C DEB
1 30622U 99025AND 21093.08809119  .00000499  00000-0  33998-3 0  9996
2 30622 101.0217  52.3677 0105048 207.2395 213.4777 14.03671905722157
0 FENGYUN 1C DEB
1 30558U 99025AKY 21093.21979703  .00001160  00000-0  17273-2 0  9999
2 30558  99.4832   5.4170 0448095  66.5611 298.1957 13.21079103680934
0 FENGYUN 1C DEB
1 30303U 99025ZQ  21093.05424925  .00000860  00000-0  49384-3 0  9995
2 30303  99.1005 122.5152 0095370  95.6753 265.5301 14.09791625727813
0 COSMOS 1249 COOLANT *
1 29444U 81021W   21094.01535509 -.00000002  00000-0  71548-4 0  9991
2 29444  64.9653 351.3256 0046561 179.7831 180.3260 13.89094891340189
0 COSMOS 1823 DEB
1 29356U 87020DX  21094.64791847  .00000133  00000-0  10539-2 0  9991
2 29356  73.6559  78.1667 0035815 311.8543 167.1669 12.45249461849469
0 METEOR 2-17 DEB
1 29302U 88005R   21093.00155686  .00000288  00000-0  18930-3 0  9995
2 29302  82.5457 331.8617 0016248  22.2938 337.8933 13.98761303759777
0 METEOR 2-5 DEB
1 29293U 79095S   21094.03643384  .00001501  00000-0  68444-3 0  9998
2 29293  81.2078 209.3169 0016019 341.4219  18.6371 14.21149133393206
0 TRANSIT 15 DEB
1 29265U 67034K   21094.64247458  .00008259  00000-0  31258-2 0  9995
2 29265  90.1983 337.9835 0044058  83.7296 276.8916 14.30604515862419
0 SCOUT G-1 DEB
1 29208U 87080L   21093.45819262  .00002179  00000-0  16968-2 0  9997
2 29208  90.2411 354.8005 0085966  34.0665 326.5985 13.90409950848483
0 METEOR 2-6 DEB
1 29199U 80073E   21093.59225384  .00001237  00000-0  47912-3 0  9990
2 29199  81.2139  64.1160 0024757 251.3774 108.4719 14.29391615778078
0 METEOR 2-5 DEB
1 29198U 79095P   21094.64125629  .00001536  00000-0  50641-3 0  9994
2 29198  81.2040  64.0025 0007538 239.7576 120.2864 14.37728601394867
0 SCOUT B DEB
1 29172U 65063W   21093.53183949  .00000202  00000-0  16829-2 0  9990
2 29172  69.2293 199.3755 0766226 219.9892 147.9431 11.80256343373546
0 SL-16 DEB *
1 29102U 93016AR  21093.72595709  .00002264  00000-0  77956-3 0  9993
2 29102  70.9325 249.1588 0105425  51.3812 309.6700 14.33926337955876
0 SL-18 DEB
1 29030U 93014AX  21093.46108669  .00003522  00000-0  45687-3 0  9991
2 29030  75.7423  14.7462 0075276 169.8621 190.4105 14.78997089800097
0 METEOR 2-17 DEB
1 28994U 88005J   21093.03248859  .00001152  00000-0  87109-3 0  9994
2 28994  82.5491  17.2446 0010484 257.6491 114.1499 13.93255973394628
0 METEOR 2-17 DEB
1 28992U 88005G   21093.07139641 -.00000021  00000-0 -28774-4 0  9994
2 28992  82.5392  20.4317 0007707  12.1693   1.0353 13.91728970793896
0 METEOR 2-5 DEB
1 28972U 79095H   21094.37083121  .00003172  00000-0  64497-3 0  9995
2 28972  81.1859 325.9952 0017317 324.2877  35.7162 14.60844252343267
0 PSLV DEB
1 28850U 01049PC  21094.88638416  .00008876  00000-0  25635-3 0  9990
2 28850  97.5241 151.8448 0009475 356.6897   3.4282 15.35863355431644
0 SCOUT B DEB
1 28793U 65063C   21093.41473994  .00000884  00000-0  44823-2 0  9998
2 28793  69.2241 112.7483 0738319 122.0484 245.4410 12.08527262793085
0 DELTA 1 DEB
1 28670U 68055T   21093.15432766  .00003481  00000-0  14405-2 0  9998
2 28670 120.5032 168.2934 0872498  80.9734 288.8846 13.10449708759888
0 NIMBUS 2 DEB
1 28617U 66040AG  21093.08622425  .00001039  00000-0  13403-2 0  9990
2 28617 100.4324 140.0216 0063225 134.9224 254.7186 13.64427752934748
0 DMSP 5D-2 F11 DEB
1 28331U 91082AU  21093.82499125  .00001018  00000-0  29399-3 0  9997
2 28331  98.2847 102.0064 0042448 103.3079 257.2852 14.46110089887205
0 SL-18 DEB
1 28290U 93014T   21093.84683295  .00007209  00000-0  79632-3 0  9996
2 28290  75.7419 302.8804 0061942  70.3071 290.4786 14.86094140376606
0 COSMOS 1579 COOLANT
1 28271U 84069AG  21094.82256288 -.00000004  00000-0  67153-4 0  9995
2 28271  65.0517 170.2901 0061769 285.6408  73.7846 13.90942146868767
0 DELTA 2 DEB
1 28193U 04009D   21093.51408371  .00047039  76930-7  24994-3 0  9996
2 28193  38.8048 164.7010 2618176 288.1233  45.3430 10.33701835452420
0 SL-12 DEB
1 27998U 88085AU  21093.92670176  .00012577  00000-0  22789-1 0  9998
2 27998  65.0904 281.4828 2402135 231.1961 104.9137  9.71863701411030
0 PEGASUS DEB
1 27679U 94029AEJ 21093.90660101  .00000410  00000-0  97956-4 0  9998
2 27679  81.9818 327.5552 0333327 130.8875 232.1699 14.22368256999604
0 CZ-4 DEB
1 27676U 99057MQ  21094.41554425  .00000169  00000-0  69001-4 0  9990
2 27676  98.8074  91.5678 0107632 125.5394 235.5885 14.36615904953709
0 DELTA 1 DEB
1 27577U 75052LE  21093.49175785  .00000178  00000-0  36059-3 0  9990
2 27577  99.0637 109.0072 0081067 126.4855  35.1511 13.44801844281820
0 COSMOS 1249 COOLANT
1 27569U 81021R   21094.04815977 -.00000005  00000-0  67106-4 0  9998
2 27569  64.9603 238.4450 0043174 173.3536 186.8110 13.91367934389654
0 COSMOS 1176 COOLANT
1 27568U 80034E   21094.06647851  .00000294  00000-0  22741-3 0  9990
2 27568  64.8243 258.1733 0018930  89.3298 270.9942 14.08293245963915
0 OPS 4682 DEB
1 27545U 65027BH  21093.60622414  .00000161  00000-0  56270-3 0  9994
2 27545  90.2847 322.9293 0021865 174.2579 214.0915 12.93325960909642
0 NOAA 17
1 27453U 02032A   21094.40160933  .00000008  00000-0  22092-4 0  9997
2 27453  98.6211  41.1581 0012939 107.7696 252.4897 14.25053067976338
0 COSMOS 1579 COOLANT
1 26646U 84069T   21094.86486318 -.00000010  00000-0  63711-4 0  9995
2 26646  65.0464 177.0266 0057742 300.8177 173.4473 13.90485365 40930
0 COSMOS 1579 COOLANT
1 26520U 84069M   21094.05823512 -.00000006  00000-0  67132-4 0  9994
2 26520  65.0483 197.2745 0058024 301.3345 233.3249 13.90042449396196
0 COSMOS 1579 COOLANT
1 26519U 84069L   21093.07494291 -.00000004  00000-0  68694-4 0  9993
2 26519  65.0501 210.9675 0057202 298.2425 233.9323 13.89860700 72545
0 COSMOS 1249 COOLANT
1 26503U 81021E   21093.86096128  .00000001  00000-0  72091-4 0  9997
2 26503  64.9582 247.5117 0044459 178.6040 257.1953 13.91096183 68738
0 SL-8 DEB
1 25085U 91009CX  21094.39765128  .00000110  00000-0  11051-2 0  9998
2 25085  74.1091  82.3561 0174661 331.9699 184.6705 12.23216764178634
0 SL-19 DEB
1 24703U 94085Z   21094.57758594 -.00000064  00000-0 -67150-3 0  9992
2 24703  64.7438 305.8476 0198787 130.0160 259.5073 11.20711733296738
0 OPS 0856 DEB
1 24676U 66077Q   21094.15607569 -.00011803  00000-0 -52832+0 0  9990
2 24676  88.7314 155.4499 1928539  69.5620 310.1198  8.97009186387548
0 USA 40 R/B DEB
1 23383U 89061BF  21094.74227028  .00000992  00000-0  47067-3 0  9998
2 23383  57.0698  11.3727 3047157 291.7108  38.8568  8.90903276 69380
0 USA 40 R/B DEB
1 23372U 89061AU  21094.36345403  .00000387  00000-0  28318-3 0  9998
2 23372  56.9965 228.9524 3014284 355.7704   2.2084  8.89265549 69674
0 DELTA 1 DEB
1 21362U 75052CG  21094.87513315  .00000581  00000-0  24736-2 0  9990
2 21362  99.4972 231.1862 0592336 209.1788 321.7395 12.40605744344073
0 THORAD AGENA D DEB
1 19423U 70025QB  21093.26489020  .00002971  00000-0  56377-3 0  9999
2 19423  99.7810 199.0104 0035553 267.1029  92.6099 14.64831394847273
0 DELTA 1 DEB
1 18671U 73086GZ  21093.49026611  .00000018  00000-0  45268-3 0  9998
2 18671 101.6453  91.3279 0112442 347.7002 165.1672 12.39229349525467
0 WESTFORD NEEDLES
1 18615U 63014DK  21094.63010781 -.00000114  00000-0 -37552-1 0  9998
2 18615  86.9092 331.6938 0787021 275.8191  99.0345  8.70279906878953
0 DELTA 1 DEB *
1 18591U 76077FD  21094.37920322  .00002872  00000-0  69700-1 0  9997
2 18591 100.9977  57.4522 1063894 254.1843 291.6932 10.57082713390897
0 COSMOS 886 DEB
1 15555U 76126BT  21093.09728498  .00000109  00000-0  18181-3 0  9997
2 15555  65.7821 291.2841 0972100 209.8493 144.3518 12.51260175328787
0 DELTA 1 DEB
1 13580U 78026FT  21094.19009708  .00000230  00000-0  94412-4 0  9999
2 13580  98.6522  93.0369 0050317 177.7957 182.3459 14.35353749969819
0 TANSEI 3 DEB
1 13133U 77012J   21094.49545142  .00000063  00000-0  27282-3 0  9991
2 13133  65.8430 142.5609 1663862 204.5558 146.6421 10.87905630737816
0 DELTA 1 DEB
1 10211U 77065AQ  21093.94247667 -.00000684  00000-0 -15573-2 0  9993
2 10211  29.4793 349.4585 0675578 321.0846  34.2886 12.66989278869430
0 TANSEI 3 DEB
1 09981U 77012E   21094.31965548 -.00000012  00000-0  73144-4 0  9998
2 09981  65.2075  18.0718 1693318   3.0893 357.9050 10.83522727744273
0 DELTA 1 DEB
1  9976U 73086GF  21093.16995581  .00000038  00000-0  66548-3 0  9997
2  9976 102.3132  77.4550 0044662  77.4473 346.6926 12.35043423 61726
0 COSMOS 252 DEB
1  9973U 68097DV  21093.15934174  .00000690  00000-0  28834-3 0  9990
2  9973  62.4103 251.5169 0643041 200.6287 156.7665 13.57174974771579
0 COSMOS 886 DEB
1  9966U 76126BG  21093.44789801  .00000514  00000-0  23390-3 0  9998
2  9966  65.7852 157.8942 0692424 163.9830 198.4376 13.44869306114501
